#Pass ID: 20250115_031910_FENGYUN 3E
#Satellite: FENGYUN 3E
#Configuration: FENGYUN 3E
#Start time: 2025-01-15 03:19:15.512742

#LorettStation: 1.0.0 05.05.2024
#Station: Regia
#Location: 37.494653 lon 55.929028 lat
#TLE: 1 49008U 21062A   25013.91906307  .00000051  00000+0  44713-4 0  9996
#TLE: 2 49008  98.7393  18.4500 0002349 123.4878 236.6523 14.19832550182894

#Time	Az	El	Level	SNR
#Closed at: 2025-01-15 03:19:10.514042